[{"OBJECT_NAME":"STARLINK-35351","OBJECT_ID":"2025-211S","EPOCH":"2026-03-09T16:20:15.632736","MEAN_MOTION":15.05631723,"ECCENTRICITY":0.00015109,"INCLINATION":97.6038,"RA_OF_ASC_NODE":114.1056,"ARG_OF_PERICENTER":99.7141,"MEAN_ANOMALY":260.4256,"EPHEMERIS_TYPE":0,"CLASSIFICATION_TYPE":"U","NORAD_CAT_ID":65668,"ELEMENT_SET_NO":999,"REV_AT_EPOCH":2704,"BSTAR":-0.00011469674,"MEAN_MOTION_DOT":-1.715e-5,"MEAN_MOTION_DDOT":0},{"OBJECT_NAME":"OKEAN-3","OBJECT_ID":"1991-039A","EPOCH":"2026-03-09T19:29:17.530944","MEAN_MOTION":15.0480588,"ECCENTRICITY":0.00139411,"INCLINATION":82.519,"RA_OF_ASC_NODE":336.7249,"ARG_OF_PERICENTER":337.9296,"MEAN_ANOMALY":22.1329,"EPHEMERIS_TYPE":0,"CLASSIFICATION_TYPE":"U","NORAD_CAT_ID":21397,"ELEMENT_SET_NO":999,"REV_AT_EPOCH":86505,"BSTAR":0.00031884915,"MEAN_MOTION_DOT":4.536e-5,"MEAN_MOTION_DDOT":0}]
